GOES 1 (SMS-C) [-]      
1 08366U 75100A   23249.68177597  .00000024  00000+0  00000+0 0  9990
2 08366   7.1849 290.0995 0003284 263.3838 273.1986  1.00245047174896
GOES 2 [-]              
1 10061U 77048A   23249.80541267 -.00000130  00000+0  00000+0 0  9990
2 10061   8.8289 302.4740 0009599  34.0602  37.4109  0.99394724 36192
GOES 3 [-]              
1 10953U 78062A   23249.61520366 -.00000020  00000+0  00000+0 0  9991
2 10953   9.1985 307.3225 0003216 193.4646 327.1535  0.99357963118455
GOES 4 [-]              
1 11964U 80074A   23249.81971225 -.00000241  00000+0  00000+0 0  9991
2 11964  10.1945 311.1592 0031253  88.8711 358.9356  0.99230548117370
GOES 5 [-]              
1 12472U 81049A   23249.39420187 -.00000066  00000+0  00000+0 0  9993
2 12472  11.1799 322.9224 0002915 205.7243 208.7237  1.00204825112678
GOES 6 [-]              
1 14050U 83041A   23249.39723375 -.00000014  00000+0  00000+0 0  9999
2 14050  11.8153 328.3389 0005292 175.3440 224.7096  1.00225055205848
GOES 7 [-]              
1 17561U 87022A   23248.99152875 -.00000039  00000+0  00000+0 0  9995
2 17561  13.8535 344.9956 0004486 101.3968 263.8664  0.99906314116821
GOES 8 [-]              
1 23051U 94022A   23249.19848993 -.00000259  00000+0  00000+0 0  9994
2 23051  13.5562  21.0416 0005579  78.5399 285.1129  0.98907178114098
GOES 9 [-]              
1 23581U 95025A   23249.93360497  .00000028  00000+0  00000+0 0  9999
2 23581  13.0574  21.5423 0009105 130.1389 231.2517  0.98797929102732
GOES 10 [-]             
1 24786U 97019A   23249.90054931  .00000003  00000+0  00000+0 0  9995
2 24786  11.9296  27.9004 0028759 207.2930 329.7143  0.99121743 96003
GOES 11 [-]             
1 26352U 00022A   23249.70483696 -.00000222  00000+0  00000+0 0  9990
2 26352   9.6308  55.6608 0002836 146.3610  28.8263  0.99045306 42423
GOES 12 [-]             
1 26871U 01031A   23250.05726340  .00000066  00000+0  00000+0 0  9998
2 26871  10.3225  45.1454 0002292 339.3284  37.1274  0.99135000 80682
EWS-G1 (GOES 13) [+]    
1 29155U 06018A   23250.06438163  .00000026  00000+0  00000+0 0  9996
2 29155   1.7185  90.5995 0004974 120.0815 219.7134  1.00274447 63346
GOES 14 [B]             
1 35491U 09033A   23250.04316641 -.00000077  00000+0  00000+0 0  9997
2 35491   0.4300 265.8551 0004165 225.1173 121.8538  1.00272247 51986
GOES 15 [B]             
1 36411U 10008A   23249.82624912 -.00000367  00000+0  00000+0 0  9993
2 36411   0.4062 275.2121 0004380 305.9568 184.5046  0.99982187 49475
GOES 16 [+]             
1 41866U 16071A   23249.54818765 -.00000259  00000+0  00000+0 0  9999
2 41866   0.0803 283.3541 0000776 306.7994 237.3542  1.00271446 24931
GOES 17 [+]             
1 43226U 18022A   23250.04394962 -.00000102  00000+0  00000+0 0  9991
2 43226   0.0144 285.2906 0001987 241.9964  89.6927  1.00272045 20262
GOES 18 [+]             
1 51850U 22021A   23250.03750995  .00000085  00000+0  00000+0 0  9997
2 51850   0.0141  20.6385 0000384 184.9725  16.7360  1.00271778  5632
